STARLINK-30938          
1 58389U 23178R   26068.20442567 -.00000342  00000+0  57712-6 0  9993
2 58389  53.1622   3.5666 0000992 108.8928 251.2181 15.30191809129814
TRANSPORTER-11 OBJECT A 
1 60468U 24149A   26068.74646182  .00010774  00000+0  36054-3 0  9993
2 60468  97.3780 149.0949 0003110 191.0010 169.1164 15.31141332 86830
